NORAD_CAT_ID,EPOCH,MEAN_MOTION,ECCENTRICITY,INCLINATION,RA_OF_ASC_NODE,ARG_OF_PERICENTER,MEAN_ANOMALY,SEMIMAJOR_AXIS,PERIOD,APOGEE,PERIGEE
5855,2019-11-22 23:22:00,15.019143,0.0,97.62100000000001,189.986,0.0,282.752,6939.130783,95.87799999999999,560.993783,560.993783
5855,2019-11-23 01:39:00,15.019143,0.0,97.62100000000001,190.079,0.0,76.502,6939.130783,95.87799999999999,560.993783,560.993783
5855,2019-11-23 03:07:00,15.019143,0.0,97.62100000000001,190.14,0.0,46.501999999999995,6939.130783,95.87799999999999,560.993783,560.993783
5855,2019-11-23 05:02:00,15.019143,0.0,97.62,190.218,0.0,117.75200000000001,6939.130783,95.87799999999999,560.993783,560.993783
5855,2019-11-23 07:59:00,15.019143,0.0,97.62,190.33900000000003,0.0,61.501999999999995,6939.130783,95.87799999999999,560.993783,560.993783
5855,2019-11-23 09:04:00,15.019143,0.0,97.62,190.38400000000001,0.0,305.252,6939.130783,95.87799999999999,560.993783,560.993783
5855,2019-11-23 11:54:00,15.019143,0.0,97.62,190.5,0.0,222.752,6939.130783,95.87799999999999,560.993783,560.993783
5855,2019-11-23 13:26:00,15.019143,0.0,97.62,190.563,0.0,207.752,6939.130783,95.87799999999999,560.993783,560.993783
5855,2019-11-23 15:08:00,15.019143,0.0,97.62,190.63299999999998,0.0,230.252,6939.130783,95.87799999999999,560.993783,560.993783
5855,2019-11-23 17:02:00,15.019143,0.0,97.619,190.71099999999998,0.0,297.752,6939.130783,95.87799999999999,560.993783,560.993783
5855,2019-11-23 19:23:00,15.019143,0.0,97.619,190.80700000000002,0.0,106.50200000000001,6939.130783,95.87799999999999,560.993783,560.993783
5855,2019-11-23 21:54:00,15.019143,0.0,97.619,190.91099999999997,0.0,312.752,6939.130783,95.87799999999999,560.993783,560.993783
5855,2019-11-23 23:30:00,15.019143,0.0,97.619,190.977,0.0,312.752,6939.130783,95.87799999999999,560.993783,560.993783
5855,2019-11-24 01:57:00,15.019143,0.0,97.619,191.077,0.0,144.002,6939.130783,95.87799999999999,560.993783,560.993783
5855,2019-11-24 03:10:00,15.019143,0.0,97.619,191.127,0.0,57.751999999999995,6939.130783,95.87799999999999,560.993783,560.993783
5855,2019-11-24 05:47:00,15.019143,0.0,97.618,191.235,0.0,286.502,6939.130783,95.87799999999999,560.993783,560.993783
5855,2019-11-24 07:14:00,15.019143,0.0,97.618,191.294,0.0,252.752,6939.130783,95.87799999999999,560.993783,560.993783
5855,2019-11-24 09:51:00,15.019143,0.0,97.618,191.40200000000002,0.0,121.501,6939.130783,95.87799999999999,560.993783,560.993783
5855,2019-11-24 11:23:00,15.019143,0.0,97.618,191.465,0.0,106.501,6939.130783,95.87799999999999,560.993783,560.993783
5855,2019-11-24 13:28:00,15.019143,0.0,97.618,191.55,0.0,215.25099999999998,6939.130783,95.87799999999999,560.993783,560.993783
5855,2019-11-24 15:12:00,15.019143,0.0,97.618,191.62099999999998,0.0,245.25099999999998,6939.130783,95.87799999999999,560.993783,560.993783
5855,2019-11-24 17:56:00,15.019143,0.0,97.618,191.734,0.0,140.251,6939.130783,95.87799999999999,560.993783,560.993783
5855,2019-11-24 19:42:00,15.019143,0.0,97.617,191.80599999999998,0.0,177.75099999999998,6939.130783,95.87799999999999,560.993783,560.993783
5855,2019-11-24 21:11:00,15.019143,0.0,97.617,191.86700000000002,0.0,151.501,6939.130783,95.87799999999999,560.993783,560.993783
5855,2019-11-24 23:31:00,15.019143,0.0,97.617,191.963,0.0,316.501,6939.130783,95.87799999999999,560.993783,560.993783
5855,2019-11-25 01:01:00,15.019143,0.0,97.617,192.024,0.0,294.001,6939.130783,95.87799999999999,560.993783,560.993783
5855,2019-11-25 03:44:00,15.019143,0.0,97.617,192.136,0.0,185.25099999999998,6939.130783,95.87799999999999,560.993783,560.993783
5855,2019-11-25 05:25:00,15.019143,0.0,97.617,192.205,0.0,204.00099999999998,6939.130783,95.87799999999999,560.993783,560.993783
5855,2019-11-25 07:55:00,15.019143,0.0,97.616,192.308,0.0,46.501000000000005,6939.130783,95.87799999999999,560.993783,560.993783
5855,2019-11-25 09:18:00,15.019143,0.0,97.616,192.365,0.0,357.751,6939.130783,95.87799999999999,560.993783,560.993783
5855,2019-11-25 11:14:00,15.019143,0.0,97.616,192.44400000000002,0.0,72.751,6939.130783,95.87799999999999,560.993783,560.993783
5855,2019-11-25 13:40:00,15.019143,0.0,97.616,192.544,0.0,260.251,6939.130783,95.87799999999999,560.993783,560.993783
5855,2019-11-25 15:41:00,15.019143,0.0,97.616,192.627,0.0,354.001,6939.130783,95.87799999999999,560.993783,560.993783
