1 5855U          19326.97361111  .00000000  00000-0  00000-0 0 00000
2 5855 097.6210 189.9860 0000000 000.0000 282.7520 15.01914300000000
1 5855U          19327.06875000  .00000000  00000-0  00000-0 0 00000
2 5855 097.6210 190.0790 0000000 000.0000 076.5020 15.01914300000000
1 5855U          19327.12986111  .00000000  00000-0  00000-0 0 00000
2 5855 097.6210 190.1400 0000000 000.0000 046.5020 15.01914300000000
1 5855U          19327.20972222  .00000000  00000-0  00000-0 0 00000
2 5855 097.6200 190.2180 0000000 000.0000 117.7520 15.01914300000000
1 5855U          19327.33263889  .00000000  00000-0  00000-0 0 00000
2 5855 097.6200 190.3390 0000000 000.0000 061.5020 15.01914300000000
1 5855U          19327.37777778  .00000000  00000-0  00000-0 0 00000
2 5855 097.6200 190.3840 0000000 000.0000 305.2520 15.01914300000000
1 5855U          19327.49583333  .00000000  00000-0  00000-0 0 00000
2 5855 097.6200 190.5000 0000000 000.0000 222.7520 15.01914300000000
1 5855U          19327.55972222  .00000000  00000-0  00000-0 0 00000
2 5855 097.6200 190.5630 0000000 000.0000 207.7520 15.01914300000000
1 5855U          19327.63055556  .00000000  00000-0  00000-0 0 00000
2 5855 097.6200 190.6330 0000000 000.0000 230.2520 15.01914300000000
1 5855U          19327.70972222  .00000000  00000-0  00000-0 0 00000
2 5855 097.6190 190.7110 0000000 000.0000 297.7520 15.01914300000000
1 5855U          19327.80763889  .00000000  00000-0  00000-0 0 00000
2 5855 097.6190 190.8070 0000000 000.0000 106.5020 15.01914300000000
1 5855U          19327.91250000  .00000000  00000-0  00000-0 0 00000
2 5855 097.6190 190.9110 0000000 000.0000 312.7520 15.01914300000000
1 5855U          19327.97916667  .00000000  00000-0  00000-0 0 00000
2 5855 097.6190 190.9770 0000000 000.0000 312.7520 15.01914300000000
1 5855U          19328.08125000  .00000000  00000-0  00000-0 0 00000
2 5855 097.6190 191.0770 0000000 000.0000 144.0020 15.01914300000000
1 5855U          19328.13194444  .00000000  00000-0  00000-0 0 00000
2 5855 097.6190 191.1270 0000000 000.0000 057.7520 15.01914300000000
1 5855U          19328.24097222  .00000000  00000-0  00000-0 0 00000
2 5855 097.6180 191.2350 0000000 000.0000 286.5020 15.01914300000000
1 5855U          19328.30138889  .00000000  00000-0  00000-0 0 00000
2 5855 097.6180 191.2940 0000000 000.0000 252.7520 15.01914300000000
1 5855U          19328.41041667  .00000000  00000-0  00000-0 0 00000
2 5855 097.6180 191.4020 0000000 000.0000 121.5010 15.01914300000000
1 5855U          19328.47430556  .00000000  00000-0  00000-0 0 00000
2 5855 097.6180 191.4650 0000000 000.0000 106.5010 15.01914300000000
1 5855U          19328.56111111  .00000000  00000-0  00000-0 0 00000
2 5855 097.6180 191.5500 0000000 000.0000 215.2510 15.01914300000000
1 5855U          19328.63333333  .00000000  00000-0  00000-0 0 00000
2 5855 097.6180 191.6210 0000000 000.0000 245.2510 15.01914300000000
1 5855U          19328.74722222  .00000000  00000-0  00000-0 0 00000
2 5855 097.6180 191.7340 0000000 000.0000 140.2510 15.01914300000000
1 5855U          19328.82083333  .00000000  00000-0  00000-0 0 00000
2 5855 097.6170 191.8060 0000000 000.0000 177.7510 15.01914300000000
1 5855U          19328.88263889  .00000000  00000-0  00000-0 0 00000
2 5855 097.6170 191.8670 0000000 000.0000 151.5010 15.01914300000000
1 5855U          19328.97986111  .00000000  00000-0  00000-0 0 00000
2 5855 097.6170 191.9630 0000000 000.0000 316.5010 15.01914300000000
1 5855U          19329.04236111  .00000000  00000-0  00000-0 0 00000
2 5855 097.6170 192.0240 0000000 000.0000 294.0010 15.01914300000000
1 5855U          19329.15555556  .00000000  00000-0  00000-0 0 00000
2 5855 097.6170 192.1360 0000000 000.0000 185.2510 15.01914300000000
1 5855U          19329.22569444  .00000000  00000-0  00000-0 0 00000
2 5855 097.6170 192.2050 0000000 000.0000 204.0010 15.01914300000000
1 5855U          19329.32986111  .00000000  00000-0  00000-0 0 00000
2 5855 097.6160 192.3080 0000000 000.0000 046.5010 15.01914300000000
1 5855U          19329.38750000  .00000000  00000-0  00000-0 0 00000
2 5855 097.6160 192.3650 0000000 000.0000 357.7510 15.01914300000000
1 5855U          19329.46805556  .00000000  00000-0  00000-0 0 00000
2 5855 097.6160 192.4440 0000000 000.0000 072.7510 15.01914300000000
1 5855U          19329.56944444  .00000000  00000-0  00000-0 0 00000
2 5855 097.6160 192.5440 0000000 000.0000 260.2510 15.01914300000000
1 5855U          19329.65347222  .00000000  00000-0  00000-0 0 00000
2 5855 097.6160 192.6270 0000000 000.0000 354.0010 15.01914300000000
